[{"OBJECT_NAME":"STARLINK-31177","OBJECT_ID":"2024-019W","EPOCH":"2026-03-09T13:06:55.401984","MEAN_MOTION":15.2757515,"ECCENTRICITY":0.0001111,"INCLINATION":43.0012,"RA_OF_ASC_NODE":249.4546,"ARG_OF_PERICENTER":231.4726,"MEAN_ANOMALY":128.6026,"EPHEMERIS_TYPE":0,"CLASSIFICATION_TYPE":"U","NORAD_CAT_ID":58873,"ELEMENT_SET_NO":999,"REV_AT_EPOCH":11906,"BSTAR":3.6328e-5,"MEAN_MOTION_DOT":7.38e-6,"MEAN_MOTION_DDOT":0},{"OBJECT_NAME":"KUIPER-00209","OBJECT_ID":"2026-030N","EPOCH":"2026-03-09T14:49:43.575744","MEAN_MOTION":15.3016195,"ECCENTRICITY":0.0012191,"INCLINATION":51.8838,"RA_OF_ASC_NODE":220.0775,"ARG_OF_PERICENTER":59.1967,"MEAN_ANOMALY":301.0215,"EPHEMERIS_TYPE":0,"CLASSIFICATION_TYPE":"U","NORAD_CAT_ID":67776,"ELEMENT_SET_NO":999,"REV_AT_EPOCH":507,"BSTAR":0.0011963,"MEAN_MOTION_DOT":0.00035298,"MEAN_MOTION_DDOT":0}]
